0 FENGYUN 1C DEB
1 36697U 99025DZT 13282.73358579  .00002485  00000-0  33130-3 0  1768
2 36697 098.8366 097.4070 0207405 303.7678 054.4015 14.66903607237667
0 FENGYUN 1C DEB
1 36697U 99025DZT 13285.73480082  .00002672  00000-0  35743-3 0  1788
2 36697 098.8410 100.6516 0205494 294.3499 063.6675 14.66922814238106
0 FENGYUN 1C DEB
1 36697U 99025DZT 13287.71285790  .00002863  00000-0  38475-3 0  1795
2 36697 098.8474 102.8003 0203271 288.1734 069.8133 14.66937690238391
0 FENGYUN 1C DEB
1 36697U 99025DZT 13293.71516070  .00006276  00000-0  81978-3 0  1800
2 36697 098.8331 109.2396 0206883 269.5025 089.1101 14.67030705239277
